    CK20U040  2022 04  9.3197  5.358317  1.000582   70.0396  120.3458  167.0192  20230816   7.0  4.0  C/2020 U4 (PANSTARRS)                                    MPEC 2023-P65
    CK20U050  2022 04 27.9691  3.756456  0.998968   75.4373  107.3239   97.2767  20230816   8.0  4.0  C/2020 U5 (PANSTARRS)                                    MPEC 2023-O39
    CK20V020  2023 05  8.5204  2.227705  1.001246  162.4104  212.3713  131.6121  20230816   4.9  4.0  C/2020 V2 (ZTF)                                          MPEC 2023-P25
    CK20W050  2020 11 30.1495  3.365809  1.000879   24.5101   75.4617   88.6023  20230816  15.0  4.0  C/2020 W5 (Lemmon)                                       MPEC 2021-BE3
    CK20X020  2020 11 16.2096  3.827020  0.767555  347.3890  105.4106   18.1847  20230816  10.6  4.0  C/2020 X2 (ATLAS)                                        MPEC 2021-U31
    CK20X040  2020 11 15.8346  5.223029  0.871428  140.3113  161.8848   80.6097  20230816   9.0  4.0  C/2020 X4 (Leonard)                                      MPEC 2021-S45
    CK20Y020  2022 06 18.3282  3.137015  0.998735  266.2682   26.5151  101.2937  20230816   6.5  4.0  C/2020 Y2 (ATLAS)                                        MPEC 2023-P65
    CK20Y030  2020 12  3.2940  1.995420  0.985912  341.9343  191.4381   83.1020  20230816  13.5  4.0  C/2020 Y3 (ATLAS)                                        MPEC 2021-R75
    CK21A010  2022 01  3.2899  0.615924  1.000038  225.1221  255.9012  132.7220  20230816   8.5  4.0  C/2021 A1 (Leonard)                                      MPEC 2023-CD7
    CK21A020  2021 01 22.3721  1.412037  0.993891  338.7752  125.1829  106.9931  20230816  13.5  4.0  C/2021 A2 (NEOWISE)                                      MPEC 2022-F14
    CK21A040  2021 03 19.6838  1.147696  0.972942  204.7116  307.1105  111.5408  20230816  16.0  4.0  C/2021 A4 (NEOWISE)                                      MPEC 2022-ED3
    CK21A060  2021 05  3.1333  7.925739  0.999105  351.6269  164.0718   75.5994  20230816   7.0  4.0  C/2021 A6 (PANSTARRS)                                    MPEC 2023-O39
    CK21A070  2021 07 15.1665  1.965948  0.999065  355.9997  154.4962   78.1564  20230816  10.0  4.0  C/2021 A7 (NEOWISE)                                      MPEC 2022-M88
    CK21A090  2023 12  1.7335  7.760043  1.001744  211.4650  314.8387  158.0162  20230816   6.0  4.0  C/2021 A9 (PANSTARRS)                                    MPEC 2023-KD6
    CK21A100  2021 03 14.9909  1.262620  0.985568   82.3884  188.7065  151.9409  20230816  19.0  4.0  C/2021 A10 (NEOWISE)                                     MPEC 2021-N06
    CK21B020  2021 05  4.4237  2.511693  0.993140  334.9877  120.5112   38.0845  20230816  14.0  4.0  C/2021 B2 (PANSTARRS)                                    MPEC 2022-L66
    CK21B030  2021 03 10.4186  2.161139  0.937177  293.5332   67.2825  119.4795  20230816  13.5  4.0  C/2021 B3 (NEOWISE)                                      MPEC 2021-N06
    CK21C010  2020 12  6.8518  3.476630  0.999442  336.2135  186.8944  143.0446  20230816  11.5  4.0  C/2021 C1 (Rankin)                                       MPEC 2023-KD6
    CK21C030  2021 02 12.0748  2.274016  0.963126  357.0599  181.9226  122.1661  20230816  14.0  4.0  C/2021 C3 (Catalina)                                     MPEC 2021-N06
    CK21C040  2021 01 16.9816  4.500700  0.999931  320.1791  194.2767  132.8529  20230816   9.0  4.0  C/2021 C4 (ATLAS)                                        MPEC 2022-M88
    CK21C050  2023 02 11.0652  3.241962  0.998489  270.9231  323.6790   50.7827  20230816   9.0  4.0  C/2021 C5 (PANSTARRS)                                    MPEC 2023-N16
    CK21C060  2021 11 13.2456  3.276707  1.000816  203.7464  332.2509  164.6172  20230816  12.0  4.0  C/2021 C6 (Lemmon)                                       MPEC 2022-YB4
    CK21D010  2021 02 27.7697  0.902716  0.991035   72.3124  311.2221   31.4174  20230816  13.0  4.0  C/2021 D1 (SWAN)                                         MPEC 2022-F14
    CK21D020  2022 02  3.9732  2.946241  1.001677  125.0265  305.6743   83.8097  20230816   9.0  4.0  C/2021 D2 (ZTF)                                          MPEC 2023-J29
    CK21E030  2022 06 11.8858  1.777302  1.000796  228.8471  104.4785  112.5455  20230816   8.5  4.0  C/2021 E3 (ZTF)                                          MPEC 2023-J29
    CK21F010  2022 04  6.8135  0.996128  0.995657  146.8365  203.4530  107.3264  20230816  13.5  4.0  C/2021 F1 (Lemmon-PANSTARRS)                             MPEC 2022-QD9
    CK21G010  2021 07 21.8654  3.423502  0.953519  107.4486  270.6984  131.5472  20230816  14.0  4.0  C/2021 G1 (Leonard)                                      MPEC 2021-J72
    CK21G020  2024 09  9.5261  4.981756  0.999452  343.3150  221.0944   48.4746  20230816   5.5  4.0  C/2021 G2 (ATLAS)                                        MPEC 2023-OA6
    CK21G030  2021 10 18.0863  5.180041  0.999984   10.5927  147.4016  102.8725  20230816  10.5  4.0  C/2021 G3 (PANSTARRS)                                    MPEC 2022-X67
    CK21J010  2021 02 19.3752  1.740348  0.933992  147.3151   88.3772   92.7195  20230816  15.5  4.0  C/2021 J1 (Maury-Attard)                                 MPEC 2022-C56
    CK21J020  2021 09 22.0976  4.704409  0.959813  172.0062   23.3359  156.2133  20230816  12.0  4.0  C/2021 J2 (PANSTARRS)                                    MPEC 2023-KD6
    CK21K010  2021 05  4.1191  2.499174  0.802660  184.2789  140.9074   16.2751  20230816  11.0  4.0  C/2021 K1 (ATLAS)                                        MPEC 2022-O08
    CK21K020  2021 09  9.4793  5.467923  1.001097  343.3632  282.2579  100.8649  20230816   8.0  4.0  C/2021 K2 (MASTER)                                       MPEC 2022-O01
    CK21K030  2022 02  3.2053  5.230087  1.003551  182.0599  114.4663  134.7857  20230816  10.0  4.0  C/2021 K3 (Catalina)                                     MPEC 2022-L66
    CK21L030  2022 02 14.2524  8.458117  1.003779   91.6169  344.9818   78.5749  20230816  10.1  4.0  C/2021 L3 (Borisov)                                      MPEC 2023-M14
    CK21N030  2020 08 19.1828  5.717348  0.961955  304.7575  337.4939   26.7416  20230816   8.5  4.0  C/2021 N3 (PANSTARRS)                                    MPEC 2022-YB4
    CK21O010  2021 08 14.0661  0.785021  0.999672   74.3830   41.6241   27.5899  20230816  10.5  4.0  C/2021 O1 (Nishimura)                                    MPEC 2022-A21
    CK21O030  2022 04 21.0565  0.286816  1.000053  299.9608  189.0093   56.7944  20230816  10.5  4.0  C/2021 O3 (PANSTARRS)                                    MPEC 2022-L66
    CK21P010  2022 06  2.4381  4.375065  0.998320   40.4723  359.6781   51.6366  20230816  11.0  4.0  C/2021 P1 (PANSTARRS)                                    MPEC 2022-CN4
    CK21P020  2023 01 22.8186  5.069224  0.998243   76.7036   32.0799  150.0635  20230816   9.0  4.0  C/2021 P2 (PANSTARRS)                                    MPEC 2023-O39
    CK21P040  2022 07 30.3445  1.080179  0.996466  175.8047  348.0880   56.3123  20230816   9.5  4.0  C/2021 P4 (ATLAS)                                        MPEC 2023-A50
    CK21Q030  2022 01 26.2593  5.204953  0.931230  114.1045  307.9141   77.7564  20230816   8.0  4.0  C/2021 Q3 (ATLAS)                                        MPEC 2023-FK0
    CK21Q040  2023 06 10.8138  7.564722  1.003170  147.0236  183.3317   71.4755  20230816   6.0  4.0  C/2021 Q4 (Fuls)                                         MPEC 2023-OA6
    CK21Q060  2024 03 24.3308  8.708245  1.000024  140.9825  133.5372  161.8468  20230816   6.0  4.0  C/2021 Q6 (PANSTARRS)                                    MPEC 2023-P65
    CK21Q45M  2022 08 13.5315  2.773681  0.992515   72.8281  354.5919   22.8212  20230816  11.0  4.0  C/2021 QM45 (PANSTARRS)                                  MPEC 2023-FK0
    CK21R020  2021 12 27.1102  7.314417  0.997371   32.4587   16.2978  134.4821  20230816   7.5  4.0  C/2021 R2 (PANSTARRS)                                    MPEC 2022-X67
    CK21R070  2021 04 16.5192  5.650615  0.993462  140.2823  170.1541  158.8555  20230816  10.5  4.0  C/2021 R7 (PANSTARRS)                                    MPEC 2022-X67
    CK21S010  2022 03  1.1966  6.119600  1.002174  148.2037  299.8767   52.0670  20230816   7.0  4.0  C/2021 S1 (ATLAS)                                        MPEC 2023-J29
    CK21S030  2024 02 14.7229  1.320103  1.000161    6.8643  215.6212   58.5334  20230816   5.5  4.0  C/2021 S3 (PANSTARRS)                                    MPEC 2023-OA6
    CK21S040  2024 01  2.0946  6.689518  0.959395   72.8479    5.4931   17.4793  20230816   6.5  4.0  C/2021 S4 (Tsuchinshan)                                  MPEC 2023-P65
    CK21T010  2021 10 14.1638  3.059677  0.997848   51.5511   56.8267  140.3568  20230816  12.5  4.0  C/2021 T1 (Lemmon)                                       MPEC 2022-OB6
    CK21T020  2022 06  7.9361  1.247596  1.000408  263.5991  223.2339  117.5387  20230816  12.0  4.0  C/2021 T2 (Fuls)                                         MPEC 2023-A50
    CK21T040  2023 07 31.5381  1.483277  0.999846  329.8219  257.8847  160.7769  20230816   7.5  4.0  C/2021 T4 (Lemmon)                                       MPEC 2023-P25
    CK21U040  2021 12 21.9624  1.788501  0.960192  237.3113  241.8087  152.8846  20230816  17.0  4.0  C/2021 U4 (Leonard)                                      MPEC 2021-W31
    CK21U050  2022 01 26.5835  2.361933  0.989091  321.4344  182.7510   39.0489  20230816  13.0  4.0  C/2021 U5 (Catalina)                                     MPEC 2022-WQ9
    CK21V010  2022 04 30.4655  3.014365  0.995119  195.1430  207.6528   71.4541  20230816  13.0  4.0  C/2021 V1 (Rankin)                                       MPEC 2022-CN4
    CK21X010  2023 05 27.2497  3.233497  1.001199  334.5820   10.5926  140.1066  20230816   7.0  4.0  C/2021 X1 (Maury-Attard)                                 MPEC 2023-P25
